[{"OBJECT_NAME":"STARLINK-6056","OBJECT_ID":"2023-078AY","EPOCH":"2026-03-09T22:48:38.550816","MEAN_MOTION":14.98319506,"ECCENTRICITY":0.00026172,"INCLINATION":70.0016,"RA_OF_ASC_NODE":343.6264,"ARG_OF_PERICENTER":258.7563,"MEAN_ANOMALY":101.3302,"EPHEMERIS_TYPE":0,"CLASSIFICATION_TYPE":"U","NORAD_CAT_ID":56813,"ELEMENT_SET_NO":999,"REV_AT_EPOCH":15272,"BSTAR":7.2557614e-5,"MEAN_MOTION_DOT":7.73e-6,"MEAN_MOTION_DDOT":0},{"OBJECT_NAME":"ICEYE-X39","OBJECT_ID":"2024-149CG","EPOCH":"2026-03-09T17:17:30.183072","MEAN_MOTION":14.99225125,"ECCENTRICITY":0.0005274,"INCLINATION":97.6853,"RA_OF_ASC_NODE":147.0953,"ARG_OF_PERICENTER":52.5538,"MEAN_ANOMALY":307.6164,"EPHEMERIS_TYPE":0,"CLASSIFICATION_TYPE":"U","NORAD_CAT_ID":60546,"ELEMENT_SET_NO":999,"REV_AT_EPOCH":8521,"BSTAR":0.00029320082,"MEAN_MOTION_DOT":3.515e-5,"MEAN_MOTION_DDOT":0}]
